{"type":"Feature","properties":{"name":"Naga City","source":"OpenStreetMap Nominatim","osm_type":"relation","osm_id":3084673,"licence":"Data © OpenStreetMap contributors, ODbL 1.0. http://osm.org/copyright"},"geometry":{"type":"Polygon","coordinates":[[[123.1733722,13.6264979],[123.1764959,13.6252383],[123.1758118,13.6222358],[123.1763734,13.6218546],[123.1765923,13.6218348],[123.1767757,13.6216943],[123.1769559,13.6214561],[123.1759696,13.6210572],[123.1761027,13.6206613],[123.1761244,13.6204758],[123.1762696,13.6203305],[123.1761845,13.6201601],[123.1760699,13.6200011],[123.1758932,13.6201277],[123.1757584,13.620107],[123.1755347,13.6198852],[123.1755234,13.6198008],[123.1757627,13.6196107],[123.1758743,13.6194539],[123.1759036,13.6192972],[123.1760883,13.619219],[123.1763358,13.6193162],[123.1765027,13.6183975],[123.1763604,13.6183364],[123.1757835,13.6184258],[123.1755003,13.6183708],[123.1754437,13.6181919],[123.17538,13.6180268],[123.1754366,13.6178926],[123.1756313,13.617841],[123.1756844,13.6176759],[123.1756348,13.6175796],[123.1751748,13.6173455],[123.1753344,13.6168833],[123.1755782,13.6164509],[123.1759299,13.6161707],[123.1764323,13.615931],[123.1775708,13.6158843],[123.1775884,13.6133477],[123.1769369,13.6112625],[123.1759611,13.6105859],[123.1769786,13.609938],[123.1777609,13.6096742],[123.1805393,13.6072499],[123.1823605,13.606875],[123.1830627,13.6065142],[123.1836902,13.6058786],[123.1846029,13.6045099],[123.1853649,13.6027754],[123.1857447,13.6024844],[123.1861336,13.6023285],[123.1865119,13.6023956],[123.1871365,13.6027229],[123.2007297,13.6086766],[123.2011923,13.609159],[123.2013302,13.6091877],[123.2015701,13.6092193],[123.2020912,13.6092891],[123.2083611,13.6101081],[123.2089579,13.6102208],[123.2093537,13.6103114],[123.2096165,13.6103804],[123.2097163,13.6104125],[123.2100349,13.6105063],[123.210794,13.6107588],[123.2111505,13.610872],[123.2113565,13.6109374],[123.2117229,13.6110538],[123.2120088,13.6111455],[123.2123106,13.6112426],[123.213089,13.6115073],[123.2131349,13.6115214],[123.2131976,13.6114975],[123.2134785,13.6112816],[123.2148845,13.611191],[123.2154223,13.6113495],[123.2158397,13.6112331],[123.21622,13.6110939],[123.216554,13.6110574],[123.2167573,13.611277],[123.2172823,13.6111147],[123.2176621,13.6111141],[123.2177097,13.6111369],[123.2181586,13.6111831],[123.2186121,13.611159],[123.2186351,13.611147],[123.2190724,13.6112628],[123.2196095,13.6115759],[123.2196685,13.6115869],[123.2200719,13.6120374],[123.2204984,13.612141],[123.2207883,13.6114372],[123.2212787,13.6112747],[123.2220491,13.6111372],[123.2228689,13.6110418],[123.2235858,13.6110187],[123.2242818,13.6111595],[123.2248133,13.6115554],[123.2257989,13.611485],[123.2261834,13.6118113],[123.2269569,13.6115084],[123.2276559,13.611533],[123.228666,13.6117795],[123.2289,13.6117299],[123.228917,13.611315],[123.2293882,13.610958],[123.2300915,13.6108417],[123.2302871,13.6106677],[123.2314207,13.6108907],[123.2319175,13.6107881],[123.2322729,13.610553],[123.232737,13.6105288],[123.2329848,13.6106973],[123.233241,13.6109798],[123.234483,13.6111107],[123.2352027,13.611306],[123.2357009,13.6116626],[123.2382792,13.6102425],[123.238353,13.6102644],[123.2391622,13.6104414],[123.2392112,13.6105157],[123.2398328,13.6114596],[123.2400696,13.6118076],[123.2406378,13.6147694],[123.2416108,13.6152215],[123.2418685,13.6156345],[123.2419816,13.615919],[123.2419922,13.6160359],[123.2420369,13.6162024],[123.2426468,13.6175383],[123.2428484,13.617501],[123.2436858,13.6178863],[123.2437925,13.6182413],[123.2436423,13.6187105],[123.2434068,13.6192105],[123.2433312,13.6197011],[123.2434063,13.6201078],[123.2435651,13.6201424],[123.2438157,13.6200923],[123.2440025,13.6200194],[123.2441392,13.6201379],[123.2443488,13.6202427],[123.2445082,13.6204067],[123.2445902,13.6205525],[123.2447452,13.6206072],[123.2449092,13.6205707],[123.2450732,13.6204523],[123.2452053,13.620352],[123.2454422,13.6202882],[123.2456928,13.6203247],[123.2459479,13.6203702],[123.2460618,13.6205206],[123.2460573,13.6206709],[123.2459798,13.6207985],[123.2458705,13.6208532],[123.245711,13.6209124],[123.2454969,13.6209716],[123.2453557,13.6210172],[123.2452736,13.6211903],[123.2452919,13.6213407],[123.2453807,13.6214865],[123.2455106,13.621614],[123.2456199,13.6217393],[123.2457224,13.6218396],[123.2457292,13.6219375],[123.2456837,13.6220696],[123.2456427,13.6222177],[123.2457725,13.6223339],[123.2458728,13.622384],[123.2459548,13.6223817],[123.2460778,13.6223726],[123.2461848,13.6223407],[123.2463261,13.6223772],[123.2464468,13.6224728],[123.2465698,13.6224865],[123.2466177,13.622384],[123.2465903,13.6221835],[123.2467635,13.6221106],[123.246932,13.6222018],[123.2471507,13.6223567],[123.2473512,13.6224478],[123.247497,13.6226118],[123.2477111,13.6228487],[123.2478569,13.6230218],[123.2480164,13.6231221],[123.2482852,13.6231403],[123.2486269,13.6230947],[123.2488456,13.6229626],[123.2490551,13.6227166],[123.2491599,13.6224797],[123.2491964,13.6221927],[123.2491781,13.6218692],[123.2492647,13.6215913],[123.2493923,13.6212951],[123.2495836,13.6209853],[123.249775,13.6206983],[123.2499663,13.6204841],[123.249898,13.6202882],[123.2496565,13.6201151],[123.2494196,13.6199192],[123.2491371,13.6197324],[123.2490642,13.6195411],[123.2490642,13.6192859],[123.2488729,13.6190171],[123.2486588,13.6187665],[123.2485494,13.6184841],[123.2486861,13.6183747],[123.2489367,13.61832],[123.2493239,13.6182107],[123.2496201,13.6182061],[123.2499663,13.618279],[123.2502716,13.6183838],[123.2506452,13.6185889],[123.2509595,13.6188485],[123.251242,13.6189898],[123.2514243,13.6190445],[123.2516429,13.6190353],[123.251807,13.6187893],[123.2518115,13.6186207],[123.2518388,13.6181834],[123.2517568,13.6175638],[123.25193,13.6173542],[123.2525222,13.6174088],[123.2528776,13.617582],[123.2534243,13.6177916],[123.2538799,13.617828],[123.2545269,13.6177004],[123.2550372,13.6174544],[123.2552923,13.6171355],[123.2558026,13.6173906],[123.2560577,13.6176002],[123.2564313,13.6174635],[123.2568778,13.6170899],[123.2573516,13.617017],[123.2580897,13.617181],[123.2584633,13.6176366],[123.258682,13.6183018],[123.2592196,13.6187756],[123.2596205,13.6196048],[123.2599657,13.6200799],[123.2600328,13.6201733],[123.2600543,13.6204392],[123.2600932,13.6206683],[123.2602099,13.6209162],[123.2603687,13.6210928],[123.2608512,13.6214234],[123.2616616,13.6219011],[123.2624514,13.6223643],[123.2629441,13.6226516],[123.2630696,13.6226864],[123.263643,13.62273],[123.2639566,13.6226952],[123.2642971,13.6228693],[123.2647003,13.6226952],[123.2650497,13.6226081],[123.265426,13.6226777],[123.2657665,13.6228345],[123.2662862,13.622939],[123.2667431,13.6229738],[123.2670746,13.6226516],[123.2676391,13.6226516],[123.2679348,13.622939],[123.2682125,13.6235485],[123.2684007,13.6239752],[123.2684545,13.6246892],[123.2684276,13.6250724],[123.2682215,13.6255077],[123.2682484,13.6258648],[123.268562,13.6261434],[123.2690727,13.6262566],[123.2701747,13.6267442],[123.2708378,13.6275105],[123.2711603,13.6278501],[123.2715904,13.6281636],[123.2718592,13.6284596],[123.2718054,13.6289124],[123.2715904,13.6291911],[123.2714829,13.6296874],[123.2721638,13.6306104],[123.2726477,13.6308629],[123.2735436,13.6304188],[123.2740544,13.6300183],[123.2750579,13.6295916],[123.2755327,13.6295307],[123.2760703,13.6297832],[123.2762674,13.6302186],[123.2765004,13.6304101],[123.2769753,13.630236],[123.2769215,13.6296787],[123.2767333,13.6291562],[123.2766527,13.6284335],[123.2769305,13.6283551],[123.2778354,13.6288515],[123.2784805,13.6292781],[123.2789016,13.6295742],[123.2793407,13.6296264],[123.2795826,13.6292607],[123.2800037,13.6289734],[123.2804248,13.6290779],[123.2805861,13.6293391],[123.2804696,13.629879],[123.2800843,13.6304885],[123.2799231,13.6313157],[123.2801022,13.6322735],[123.2804696,13.6326044],[123.2810878,13.6327873],[123.2822347,13.6324738],[123.282611,13.6328917],[123.2825214,13.6332662],[123.2823064,13.6340498],[123.2824945,13.6343894],[123.2829336,13.6344155],[123.2832382,13.633867],[123.2835697,13.6337015],[123.2837758,13.6339715],[123.2838475,13.6343459],[123.283946,13.63479],[123.2840894,13.6350773],[123.2844791,13.6350161],[123.2847795,13.6348493],[123.2849726,13.6348076],[123.285316,13.6347867],[123.2856807,13.6347033],[123.2859597,13.6345782],[123.2861743,13.6346825],[123.2862816,13.6348701],[123.2864961,13.6352455],[123.2869038,13.6354332],[123.2873759,13.6354749],[123.2878265,13.6352455],[123.2883415,13.6350995],[123.2887492,13.6351412],[123.2889638,13.6354332],[123.2891569,13.6359545],[123.2891569,13.6362464],[123.2896504,13.6364967],[123.2899294,13.6365384],[123.2902941,13.6367678],[123.2907662,13.6369971],[123.2912812,13.6372682],[123.2915816,13.6374142],[123.2917747,13.6374142],[123.2919638,13.6372537],[123.2921033,13.637066],[123.2921891,13.6368366],[123.292232,13.6366489],[123.2923501,13.6366072],[123.2924895,13.6366177],[123.292629,13.6368262],[123.2925217,13.6371077],[123.2924252,13.6373579],[123.2925003,13.6375352],[123.2927256,13.637629],[123.2930796,13.6376082],[123.2935302,13.6374935],[123.2939701,13.6374205],[123.2942705,13.6374413],[123.2946246,13.6375143],[123.2949679,13.6376499],[123.295279,13.637775],[123.2955902,13.6378688],[123.2958798,13.6379627],[123.2961481,13.6379939],[123.2964807,13.6380461],[123.2968025,13.6381608],[123.2969956,13.638265],[123.2971137,13.6385152],[123.2971458,13.6387551],[123.2972424,13.6389219],[123.2974355,13.6390678],[123.2977574,13.6392138],[123.2980363,13.639464],[123.2981651,13.639683],[123.2982724,13.6400062],[123.298326,13.6402252],[123.2983904,13.6403816],[123.2985299,13.6404024],[123.2986693,13.6403503],[123.2988625,13.6402252],[123.2990019,13.6401313],[123.2991843,13.6400166],[123.2994096,13.6399124],[123.2995706,13.6397456],[123.2996886,13.6396204],[123.2998173,13.6396934],[123.2998602,13.6398707],[123.2998281,13.6401939],[123.2998173,13.6404754],[123.299871,13.6407465],[123.2999675,13.6408924],[123.3000963,13.6410071],[123.3002787,13.6410593],[123.3004289,13.6410593],[123.3005898,13.6410801],[123.3007722,13.6412782],[123.3009868,13.641518],[123.3010941,13.6416953],[123.3012443,13.6417995],[123.3014159,13.6419038],[123.301609,13.6419768],[123.3018344,13.6419872],[123.3020167,13.6419768],[123.3022206,13.6419768],[123.3024244,13.6419976],[123.3025532,13.6422166],[123.3026605,13.6424147],[123.3027892,13.6426232],[123.303036,13.6428317],[123.3032184,13.6429151],[123.3033686,13.6429047],[123.303551,13.6429881],[123.3036797,13.6431862],[123.3038943,13.6432905],[123.3041303,13.6433426],[123.3043985,13.6433634],[123.3045917,13.6433322],[123.3047097,13.6431549],[123.3048062,13.6430194],[123.304935,13.6430402],[123.3050101,13.6431549],[123.305171,13.6432905],[123.3053212,13.643353],[123.3054714,13.64328],[123.3054929,13.6431445],[123.3054714,13.642936],[123.3053963,13.6427587],[123.3054607,13.642571],[123.3056431,13.6425085],[123.3058469,13.6425189],[123.3060937,13.6426545],[123.3063405,13.6429568],[123.3064477,13.6431758],[123.3065658,13.6436449],[123.3064907,13.643843],[123.3064585,13.6440828],[123.3065014,13.6442184],[123.3066623,13.6443331],[123.3068662,13.6443435],[123.3071451,13.6442705],[123.307467,13.6442601],[123.3077996,13.6443226],[123.307982,13.6444582],[123.3081322,13.6446354],[123.3082717,13.6447605],[123.3084111,13.6448335],[123.3085721,13.6448648],[123.3087974,13.6448127],[123.3090441,13.6446146],[123.3092265,13.6442705],[123.3093875,13.6438952],[123.3095591,13.6434885],[123.3096986,13.6432592],[123.3098381,13.6432696],[123.3099132,13.6433843],[123.3100097,13.6435824],[123.3100312,13.6438847],[123.3100848,13.6441975],[123.3100848,13.6444269],[123.3100956,13.6447084],[123.3101492,13.6448961],[123.3102672,13.6450108],[123.3104067,13.6450212],[123.3105462,13.6449795],[123.3107607,13.6448335],[123.3109646,13.6447084],[123.3111684,13.6445103],[123.3113294,13.6442392],[123.311501,13.6440933],[123.3116083,13.6441454],[123.3116083,13.6442705],[123.3115439,13.6443852],[123.3114688,13.6445729],[123.3113401,13.6450108],[123.3113508,13.6452401],[123.3114474,13.6455321],[123.3116405,13.6456676],[123.3118765,13.645824],[123.3121233,13.6459804],[123.3123057,13.6460221],[123.312531,13.6459595],[123.3127241,13.6457823],[123.3129602,13.6455425],[123.3132176,13.6453548],[123.3133703,13.6452422],[123.3137906,13.6453331],[123.3140665,13.6455841],[123.3142051,13.6457827],[123.31396,13.6463856],[123.3139265,13.6469012],[123.3142311,13.647142],[123.3143089,13.6471427],[123.3146167,13.6470399],[123.3146757,13.646995],[123.3149532,13.6467106],[123.3149545,13.6463315],[123.3150791,13.6461996],[123.3154141,13.6463099],[123.315626,13.6466405],[123.315925,13.6469742],[123.3159234,13.6472409],[123.3163926,13.6476498],[123.3172219,13.6489193],[123.3178919,13.6496143],[123.3183548,13.6497786],[123.3195855,13.6495848],[123.3229483,13.6486379],[123.3261737,13.6483466],[123.3296345,13.6486823],[123.3304137,13.648215],[123.3313783,13.647488],[123.3324122,13.64757],[123.3330618,13.6482661],[123.33381,13.6486063],[123.3350236,13.6489017],[123.3365793,13.6490675],[123.337609,13.6490834],[123.3378531,13.649112],[123.3380985,13.6493121],[123.3383788,13.6493167],[123.338797,13.6492011],[123.3399416,13.6488038],[123.3401691,13.6487823],[123.3477405,13.6475068],[123.3531457,13.6481328],[123.3545551,13.6484413],[123.3564672,13.6495033],[123.3579441,13.6500862],[123.3596146,13.6502619],[123.3607127,13.650249],[123.3615819,13.6495834],[123.36181,13.6495221],[123.3623841,13.6496965],[123.3627588,13.6495857],[123.3630487,13.6494675],[123.3633336,13.6492426],[123.3641429,13.6490895],[123.3646492,13.6491363],[123.3650578,13.6490303],[123.365474,13.649019],[123.3659095,13.6490458],[123.3665235,13.6491171],[123.366682,13.6492759],[123.3675785,13.6494846],[123.3679453,13.6496693],[123.368392,13.6497685],[123.3687985,13.6498838],[123.3692673,13.650139],[123.3697733,13.6502613],[123.3701199,13.6503158],[123.3704534,13.6504285],[123.3709516,13.6508152],[123.3715793,13.6509957],[123.3719989,13.6513376],[123.3722381,13.6513865],[123.3725361,13.6517476],[123.3725904,13.6518623],[123.3727026,13.6518786],[123.3727201,13.6520305],[123.3728844,13.6521281],[123.3731198,13.652358],[123.3735225,13.6525972],[123.3737234,13.6526618],[123.3736933,13.6529599],[123.3738125,13.6531699],[123.3749383,13.6536735],[123.3753448,13.6541681],[123.3759202,13.654439],[123.3764733,13.65507],[123.3754957,13.6554496],[123.3747597,13.6555997],[123.3742733,13.6557621],[123.374217,13.6558201],[123.3736103,13.6563063],[123.3734892,13.6569996],[123.3732002,13.6571337],[123.37302,13.6574068],[123.3727841,13.6576246],[123.3724173,13.6574402],[123.372149,13.6575002],[123.3719738,13.6573953],[123.371884,13.6572911],[123.3715661,13.6574996],[123.3712563,13.6576351],[123.3707628,13.6577459],[123.3698608,13.6581233],[123.3689369,13.658448],[123.3681739,13.6588295],[123.3680477,13.658798],[123.3679471,13.6588195],[123.3679451,13.6588202],[123.3678123,13.6588169],[123.3679491,13.6588664],[123.3680585,13.6589583],[123.3680487,13.6590509],[123.368004,13.6592346],[123.3679179,13.6593663],[123.3678908,13.6594508],[123.3676946,13.6595313],[123.3673932,13.659536],[123.3671242,13.6596321],[123.3667187,13.6596214],[123.3664988,13.6596501],[123.3665195,13.6598482],[123.3664397,13.6601114],[123.3660984,13.6601551],[123.3654158,13.6601896],[123.364332,13.6601014],[123.3638673,13.6602063],[123.3639015,13.6604174],[123.3638244,13.6607462],[123.3636011,13.6607814],[123.3634689,13.6608182],[123.3632179,13.6608965],[123.36318,13.6608974],[123.3629564,13.6610079],[123.3627757,13.6609332],[123.362529,13.6608789],[123.3623014,13.6610496],[123.3622974,13.6610568],[123.3621116,13.6611409],[123.3619339,13.6613064],[123.3616561,13.6613233],[123.3614603,13.6613689],[123.3614523,13.6613817],[123.3611213,13.6614685],[123.3609394,13.6614047],[123.3607416,13.6614131],[123.3604137,13.6615278],[123.3599208,13.6616138],[123.3588984,13.661968],[123.3585422,13.662187],[123.3253733,13.6743613],[123.3026964,13.6742969],[123.2953037,13.670576],[123.2951214,13.6704926],[123.2949819,13.6702945],[123.2948424,13.6699192],[123.2947566,13.669669],[123.2946171,13.6696273],[123.2944025,13.669742],[123.294145,13.6699088],[123.293673,13.6701277],[123.2934924,13.6701571],[123.2935993,13.6704391],[123.2936609,13.6704977],[123.2936961,13.6707741],[123.2937877,13.6709376],[123.2936871,13.6711209],[123.293517,13.6712503],[123.2935555,13.6714477],[123.2933725,13.6715592],[123.2932726,13.6717566],[123.2932732,13.6717794],[123.2930626,13.6719071],[123.29295,13.672085],[123.2928706,13.6724749],[123.2927841,13.6726698],[123.2926326,13.6726959],[123.2923853,13.6727811],[123.2922814,13.6727948],[123.2921566,13.6728359],[123.2920648,13.6728364],[123.2919463,13.6729826],[123.2914648,13.6730499],[123.2911784,13.672999],[123.2909623,13.6730558],[123.2909254,13.6729056],[123.2907129,13.6728339],[123.2904078,13.6728515],[123.2903944,13.6728463],[123.2900733,13.6729205],[123.2897293,13.6730341],[123.2895216,13.6731253],[123.2893907,13.6731311],[123.2891461,13.6733486],[123.2890026,13.6734476],[123.2888808,13.673315],[123.2887491,13.6730973],[123.2886233,13.673109],[123.2884624,13.6730256],[123.2884195,13.6728796],[123.2883766,13.6727337],[123.2885149,13.6723818],[123.2881083,13.6722437],[123.2879045,13.6721603],[123.2876577,13.6722124],[123.2875504,13.6723897],[123.2875182,13.6727024],[123.2873573,13.6730151],[123.2871535,13.6730777],[123.2869067,13.6729734],[123.2866814,13.6728275],[123.2864346,13.6727441],[123.2863385,13.6726951],[123.2862883,13.6726696],[123.2859518,13.6725043],[123.2745184,13.6682848],[123.2670327,13.6656378],[123.2668708,13.6658103],[123.2666035,13.6659274],[123.2664395,13.6659792],[123.2663759,13.6660708],[123.266196,13.6661106],[123.2659946,13.6661461],[123.2659294,13.6660703],[123.2657044,13.6660883],[123.2654195,13.6660279],[123.2653411,13.6660319],[123.2653328,13.6659562],[123.2652631,13.6659581],[123.2651901,13.6658787],[123.2650542,13.6658391],[123.2648717,13.6657795],[123.2647422,13.6657426],[123.2646672,13.6656259],[123.2646083,13.665503],[123.2645467,13.6654333],[123.2644663,13.6653688],[123.2643682,13.6653926],[123.2644113,13.6653189],[123.2643293,13.6652969],[123.2642222,13.665287],[123.2640543,13.6653168],[123.2639631,13.6652803],[123.2637803,13.6653334],[123.2636515,13.6652479],[123.2634302,13.6651963],[123.2633029,13.6651759],[123.2632405,13.6652244],[123.2630796,13.6652737],[123.262956,13.665204],[123.2628461,13.6652343],[123.2627237,13.6652597],[123.2624098,13.6652231],[123.2622862,13.6651586],[123.2621435,13.6650621],[123.2620478,13.6650802],[123.2619751,13.6650237],[123.2618059,13.6648962],[123.2617747,13.6647952],[123.2615967,13.6647286],[123.2614233,13.6646697],[123.2609984,13.6645638],[123.2608054,13.6646207],[123.2607267,13.6646014],[123.2605999,13.6644822],[123.260441,13.6644418],[123.2603596,13.6644448],[123.260162,13.6643094],[123.2600302,13.6642417],[123.2598165,13.6642089],[123.2597229,13.6643018],[123.2596264,13.6643846],[123.259449,13.6643456],[123.2593496,13.6643205],[123.2590624,13.6641767],[123.258673,13.6640872],[123.2583539,13.6640768],[123.2582584,13.6640214],[123.2583909,13.6639395],[123.2584117,13.6638546],[123.2583339,13.6638145],[123.2582356,13.6637945],[123.2581023,13.6638259],[123.2579718,13.6638833],[123.2577765,13.6638002],[123.2576717,13.6637033],[123.2575739,13.663616],[123.2574488,13.6635207],[123.2571772,13.6635312],[123.256982,13.6635352],[123.2569246,13.6633798],[123.2569366,13.6631606],[123.2569036,13.6630413],[123.256819,13.6629638],[123.2566785,13.6629944],[123.25627,13.663002],[123.2562053,13.6630305],[123.2560842,13.6630033],[123.2559557,13.6629569],[123.2560399,13.6628348],[123.256098,13.6627511],[123.2561084,13.6626844],[123.2560126,13.6627025],[123.2558586,13.6626346],[123.2557401,13.6625558],[123.2555423,13.6626392],[123.2553733,13.6625782],[123.255305,13.6624525],[123.2552229,13.6623506],[123.254778,13.6621939],[123.2546333,13.6620648],[123.2545284,13.661905],[123.2544631,13.66178],[123.2542683,13.661573],[123.2541655,13.661578],[123.2540408,13.6616507],[123.2538549,13.6616763],[123.2537324,13.6616064],[123.2535677,13.661245],[123.2534579,13.6612429],[123.2532709,13.6614555],[123.2531556,13.6614717],[123.2529777,13.661459],[123.2528419,13.661546],[123.252767,13.6616349],[123.2527058,13.6617015],[123.2524263,13.6617271],[123.25229,13.6616426],[123.2521693,13.6616164],[123.2520176,13.661698],[123.2519261,13.6616111],[123.2518533,13.6615444],[123.2519511,13.6614433],[123.2518166,13.661396],[123.251686,13.6614021],[123.2515594,13.6614241],[123.2514374,13.6614201],[123.2513501,13.6613231],[123.2512577,13.6612555],[123.2511574,13.6613148],[123.2510104,13.6613117],[123.2509316,13.6611787],[123.2506815,13.6611045],[123.2505017,13.6611426],[123.250187,13.6611129],[123.2499857,13.6610681],[123.2497021,13.6610671],[123.2494741,13.6611695],[123.2492911,13.6610726],[123.2489534,13.6610088],[123.2488353,13.6609947],[123.2485165,13.6608675],[123.248285,13.6608899],[123.2481947,13.6609303],[123.2480066,13.6608829],[123.2478739,13.6607679],[123.2476943,13.6606537],[123.2476028,13.6607042],[123.2474772,13.6607493],[123.2472928,13.660778],[123.247195,13.6608522],[123.2472116,13.6609613],[123.2470506,13.6609876],[123.2469056,13.6609651],[123.2467753,13.6609821],[123.246496,13.6609236],[123.2463998,13.6609617],[123.2464424,13.6610939],[123.246536,13.661201],[123.2467454,13.6616128],[123.246678,13.6616906],[123.2464,13.6617782],[123.2463864,13.6616719],[123.2463434,13.6615434],[123.2462283,13.6614052],[123.2461472,13.6614659],[123.2461492,13.6616092],[123.2460282,13.6615677],[123.245935,13.661473],[123.2458807,13.6613771],[123.245656,13.6613235],[123.2456123,13.661279],[123.2454888,13.6612408],[123.245246,13.6610427],[123.2451168,13.6609023],[123.2448611,13.6608259],[123.2445668,13.6609059],[123.2443454,13.6609674],[123.2442546,13.6610998],[123.2441328,13.6611246],[123.244023,13.6610461],[123.2439413,13.6609657],[123.2437752,13.6609761],[123.2436775,13.6610874],[123.2435239,13.6613368],[123.2434709,13.661479],[123.2435063,13.6615316],[123.2433912,13.6616646],[123.2433149,13.6617516],[123.2431595,13.6618597],[123.2430887,13.6618516],[123.2429834,13.6616405],[123.2429668,13.6615023],[123.2428983,13.6614004],[123.2429607,13.6613135],[123.242971,13.6611448],[123.2428535,13.6610778],[123.2427305,13.6610652],[123.2426118,13.6609562],[123.2425427,13.6608912],[123.242414,13.6609141],[123.2423494,13.6609716],[123.242198,13.6609779],[123.2419618,13.6609244],[123.2418681,13.6608427],[123.2418078,13.6607726],[123.2416994,13.6606901],[123.2415582,13.6607204],[123.2414424,13.6606611],[123.2413712,13.6607219],[123.2412805,13.660745],[123.2411714,13.6607111],[123.2411088,13.6607866],[123.2410138,13.6608013],[123.2408714,13.6607216],[123.2407678,13.6607069],[123.2406628,13.6606151],[123.2405887,13.6605053],[123.2404851,13.6604864],[123.2404133,13.6605706],[123.2403109,13.660712],[123.2402008,13.6607581],[123.2400821,13.6607476],[123.2398789,13.6606676],[123.2398176,13.6607672],[123.2396565,13.6608806],[123.239568,13.6608786],[123.2394925,13.660931],[123.2394484,13.6610273],[123.2393159,13.6610566],[123.2392355,13.661158],[123.2388004,13.6613006],[123.2386917,13.6612789],[123.2386048,13.6613256],[123.2386482,13.6614034],[123.238467,13.6614443],[123.2381203,13.6615501],[123.2376801,13.6615341],[123.2375656,13.6615937],[123.2374879,13.6615825],[123.2374216,13.6616137],[123.2373552,13.6615537],[123.2372541,13.6615839],[123.2371205,13.6615388],[123.2369324,13.661453],[123.2367816,13.6615383],[123.2365006,13.6614326],[123.2363901,13.6613656],[123.236522,13.6612442],[123.2366494,13.6610863],[123.2366829,13.6609073],[123.236702,13.6607865],[123.2366389,13.6607621],[123.2364842,13.6607021],[123.2363909,13.6605998],[123.2362775,13.6606056],[123.236214,13.6607065],[123.2362057,13.6608911],[123.2360689,13.6610413],[123.2358836,13.6611181],[123.2356604,13.661054],[123.2354128,13.6610518],[123.2352813,13.6609702],[123.2352167,13.6608353],[123.2352932,13.6607633],[123.2353435,13.660661],[123.2352975,13.6604379],[123.2352377,13.6603449],[123.2351182,13.6603519],[123.2350417,13.6603472],[123.234927,13.6602486],[123.2347947,13.6601237],[123.2346616,13.6599261],[123.2345867,13.6596639],[123.2345414,13.6594565],[123.2344792,13.6593542],[123.2343445,13.6592957],[123.2342801,13.6593531],[123.234205,13.6594208],[123.2341407,13.659473],[123.2340387,13.6595199],[123.2339368,13.659572],[123.2338724,13.6596033],[123.2337973,13.6596033],[123.2337437,13.6595668],[123.23369,13.6595564],[123.2336364,13.6595042],[123.2335774,13.6594677],[123.2335291,13.6594573],[123.2334808,13.6594469],[123.2334379,13.6594208],[123.2333896,13.6593479],[123.2332931,13.6593426],[123.2332555,13.6593948],[123.2332287,13.6594782],[123.2332287,13.6595668],[123.2332823,13.6596971],[123.233336,13.6598118],[123.2333789,13.6599473],[123.2333467,13.6600151],[123.2332931,13.6601037],[123.2331965,13.6601662],[123.2331053,13.6601975],[123.2329927,13.6601871],[123.2328639,13.6601454],[123.2327674,13.6600776],[123.2326976,13.6600203],[123.2325957,13.6599577],[123.2325206,13.6599265],[123.2324509,13.6599056],[123.2323972,13.6599317],[123.2323758,13.6599786],[123.2323543,13.6600568],[123.2322953,13.6601975],[123.2322577,13.6602601],[123.2322095,13.6602861],[123.232129,13.6602861],[123.2320432,13.6602288],[123.2319627,13.6601454],[123.2318876,13.6600203],[123.2318179,13.6599056],[123.2317642,13.6598691],[123.2317052,13.6598848],[123.2316677,13.6599265],[123.2316462,13.659989],[123.2316408,13.6600464],[123.2316569,13.6601245],[123.2316784,13.6602236],[123.2317052,13.6603435],[123.2316677,13.6604425],[123.2316194,13.6605051],[123.2315389,13.6605363],[123.231437,13.6605416],[123.2312868,13.6605155],[123.2311688,13.6604634],[123.2310239,13.6603748],[123.2309113,13.6603018],[123.2307611,13.6601767],[123.2306484,13.6600151],[123.2304607,13.6598274],[123.2302836,13.659671],[123.2301817,13.6596137],[123.2300744,13.6595981],[123.2299779,13.6595981],[123.2298974,13.6596658],[123.2298384,13.659718],[123.2298223,13.6597909],[123.2297687,13.659916],[123.229715,13.6600099],[123.2296775,13.6600724],[123.2296184,13.660135],[123.2295165,13.6601715],[123.2294522,13.6601558],[123.2294146,13.6600985],[123.2293234,13.6600307],[123.2292161,13.6600047],[123.2290552,13.6600307],[123.2289694,13.6601037],[123.228905,13.6601089],[123.2288406,13.6600933],[123.228728,13.6599942],[123.2285938,13.659916],[123.2283395,13.659789],[123.2280388,13.6596706],[123.2277655,13.6595886],[123.2274465,13.659461],[123.2272005,13.6594519],[123.2268451,13.6593972],[123.2262802,13.6595339],[123.2262255,13.6594154],[123.2262574,13.6590965],[123.2261435,13.6589416],[123.2259613,13.6589006],[123.225492,13.6589826],[123.2253616,13.6588943],[123.2256515,13.658363],[123.2256697,13.6580851],[123.2254237,13.6580031],[123.2251418,13.6583944],[123.2246537,13.6585543],[123.2244031,13.6585817],[123.2241981,13.6585635],[123.2238655,13.6585498],[123.2235739,13.6585361],[123.2233507,13.6587047],[123.2230728,13.6590965],[123.2228905,13.6591876],[123.2228541,13.6589735],[123.2228313,13.6585543],[123.2226946,13.6582992],[123.2224942,13.6582946],[123.222239,13.6584404],[123.2220112,13.6581807],[123.2218335,13.6579621],[123.2212868,13.6578937],[123.2209907,13.6579119],[123.2206353,13.657839],[123.2203574,13.6578254],[123.2202891,13.6579211],[123.2204121,13.6582081],[123.2204348,13.6584313],[123.2202389,13.6585771],[123.2200339,13.6583767],[123.2198152,13.658363],[123.2196193,13.6584951],[123.2194781,13.6585771],[123.2193141,13.658773],[123.2191911,13.6587411],[123.2191956,13.6584359],[123.2191865,13.6582309],[123.218945,13.6581807],[123.2186762,13.6581534],[123.2185441,13.658076],[123.2184712,13.6579302],[123.2182981,13.6579666],[123.2182525,13.6581215],[123.218289,13.6583265],[123.2184348,13.658363],[123.218535,13.6584587],[123.2185259,13.6587548],[123.2184393,13.6589143],[123.2181842,13.6589052],[123.2180247,13.6587184],[123.2179564,13.6585088],[123.217847,13.6582719],[123.2177833,13.6580851],[123.217765,13.6577251],[123.2176921,13.6574746],[123.2174233,13.6574108],[123.2171864,13.6576295],[123.216986,13.657798],[123.2167673,13.6578937],[123.2165941,13.6578755],[123.2164347,13.6577889],[123.21638,13.6576705],[123.21638,13.6574518],[123.2159563,13.6569643],[123.2156465,13.6568185],[123.2155554,13.6565998],[123.215282,13.6563902],[123.2151362,13.6561624],[123.2148537,13.6563629],[123.2147535,13.6565087],[123.2144346,13.6567365],[123.214143,13.6566454],[123.2137694,13.6565907],[123.2137147,13.6561898],[123.2136783,13.6558526],[123.2133229,13.6558891],[123.213168,13.6560075],[123.2128855,13.6563538],[123.2126486,13.6564814],[123.2124299,13.6564267],[123.2122568,13.6562627],[123.2122933,13.6557524],[123.2123753,13.6554426],[123.2122113,13.6552786],[123.2118194,13.6552968],[123.2115825,13.655479],[123.2113638,13.6558891],[123.2111725,13.6560987],[123.2109356,13.6560895],[123.210726,13.6559438],[123.2105438,13.6555702],[123.2105073,13.6551783],[123.2103524,13.6549414],[123.2101519,13.654905],[123.2096872,13.6549323],[123.2092681,13.6551419],[123.2089856,13.6552968],[123.208776,13.6553332],[123.2086029,13.6550599],[123.208366,13.6548959],[123.2081109,13.6549323],[123.2079013,13.6551875],[123.2076644,13.6553606],[123.2074821,13.6552604],[123.207473,13.6548503],[123.2072726,13.6546043],[123.2068261,13.654422],[123.2065163,13.6538207],[123.2063796,13.6535473],[123.2062065,13.6531555],[123.2058784,13.6532557],[123.2058602,13.6535837],[123.2054319,13.654258],[123.2051312,13.65434],[123.2048943,13.6540576],[123.2047668,13.6542945],[123.2045481,13.6544767],[123.2042018,13.6543674],[123.2040196,13.6540485],[123.203974,13.6537204],[123.2038983,13.6535206],[123.2037462,13.653119],[123.2032542,13.653283],[123.203081,13.6528092],[123.2027803,13.6528366],[123.2023976,13.653119],[123.2020969,13.6531464],[123.2019329,13.6525632],[123.2017248,13.6524707],[123.2016049,13.6524174],[123.2014135,13.6524447],[123.2011037,13.6527454],[123.2010582,13.6531281],[123.2007301,13.6532922],[123.2005893,13.653322],[123.200575,13.6532182],[123.2004901,13.6531606],[123.2005001,13.6530274],[123.200428,13.6528706],[123.2003838,13.6527345],[123.2004125,13.6526055],[123.2004553,13.6525713],[123.2004553,13.6525193],[123.2003889,13.6524637],[123.2001934,13.6524067],[123.2000345,13.6523248],[123.1999314,13.6522646],[123.1999172,13.6521377],[123.1963551,13.6495583],[123.1959866,13.6479205],[123.194226,13.6463237],[123.1924654,13.6471426],[123.1916056,13.6477977],[123.1902735,13.6475236],[123.1890989,13.6457774],[123.1890258,13.6456907],[123.1888676,13.6454496],[123.1886736,13.6451856],[123.1885776,13.6450115],[123.1885515,13.6449079],[123.1884911,13.644861],[123.188422,13.6448532],[123.1881029,13.6447268],[123.1879815,13.6446545],[123.1879721,13.6446336],[123.187899,13.6445482],[123.1874863,13.6445901],[123.1871824,13.6444409],[123.1871155,13.6428662],[123.1873488,13.6428499],[123.1873562,13.6426394],[123.1873166,13.6426564],[123.187147,13.6426792],[123.1871066,13.6422864],[123.1862846,13.641443],[123.1862087,13.6414404],[123.186147,13.6413849],[123.1861403,13.6413628],[123.1861152,13.6413656],[123.1860401,13.6413402],[123.1860213,13.641279],[123.1859885,13.6412268],[123.1859616,13.641206],[123.1859261,13.641234],[123.1858832,13.6412484],[123.1858148,13.6412568],[123.1857839,13.6412829],[123.1857171,13.641254],[123.1856856,13.641228],[123.1855168,13.6411988],[123.1855765,13.6409647],[123.185002,13.640526],[123.1851266,13.6398715],[123.1851287,13.6398454],[123.1851363,13.6398051],[123.1826863,13.6376809],[123.1823495,13.6374488],[123.1813659,13.6370869],[123.1817833,13.6360103],[123.1793602,13.6329093],[123.1794679,13.6326135],[123.1789673,13.6324174],[123.1781569,13.6320793],[123.1777312,13.6318508],[123.1777411,13.6318336],[123.1781664,13.631098],[123.1779409,13.6296206],[123.1771915,13.6294745],[123.1760608,13.628938],[123.1751372,13.6283728],[123.1741189,13.627073],[123.1733722,13.6264979]]]}}
